FENGYUN 3D              
1 43010U 17072A   21323.25497338 -.00014798  00000-0 -70636-2 0  9992
2 43010  98.7905 264.1836 0002721 121.3388 238.9986 14.19161593207954
